STARLINK-33644          
1 63414U 25065R   26068.81683483  .00021640  00000+0  79326-3 0  9991
2 63414  43.0030 106.8035 0002477 265.9603  94.0966 15.27593119 52851
COSMOS 2588             
1 64095U 25109A   26068.81179522  .00009169  00000+0  32611-3 0  9998
2 64095  72.9704  73.5401 0005019 308.6780  51.3966 15.29122656 44425
